{"type": "FeatureCollection", "features": [{"type": "Feature", "geometry": {"crs": {"type": "name", "properties": {"name": "EPSG:4674"}}, "type": "Point", "coordinates": [-49.34799, -16.62616]}, "properties": {"COD": "SWNV", "NOME": "Aeródromo Nacional de Aviação", "TIPO": "Aeródromo", "ALT_M": 825, "COMP_M": 1100, "GEOCOD": "AERO001", "LARG_M": 20, "MUNICIPIO": "Goiânia", "REVESTIMENTO": "Asfalto"}}, {"type": "Feature", "geometry": {"crs": {"type": "name", "properties": {"name": "EPSG:4674"}}, "type": "Point", "coordinates": [-47.53027, -14.11895]}, "properties": {"COD": "SDXF", "NOME": "Alto Paraíso de Goiás", "TIPO": "Aeródromo", "ALT_M": 1345, "COMP_M": 1200, "GEOCOD": "AERO002", "LARG_M": 30, "MUNICIPIO": "Alto Paraíso de Goiás", "REVESTIMENTO": "Asfalto"}}, {"type": "Feature", "geometry": {"crs": {"type": "name", "properties": {"name": "EPSG:4674"}}, "type": "Point", "coordinates": [-46.523534, -14.510779]}, "properties": {"COD": "35", "NOME": "Alvorada do Norte", "TIPO": "Aeródromo", "ALT_M": null, "COMP_M": null, "GEOCOD": "AERO003", "LARG_M": null, "MUNICIPIO": "Alvorada do Norte", "REVESTIMENTO": null}}, {"type": "Feature", "geometry": {"crs": {"type": "name", "properties": {"name": "EPSG:4674"}}, "type": "Point", "coordinates": [-48.928285, -16.367487]}, "properties": {"COD": "SWNS", "NOME": "Anápolis", "TIPO": "Aeródromo", "ALT_M": 1112, "COMP_M": 1842, "GEOCOD": "AERO004", "LARG_M": 45, "MUNICIPIO": "Anápolis", "REVESTIMENTO": "Asfalto"}}, {"type": "Feature", "geometry": {"crs": {"type": "name", "properties": {"name": "EPSG:4674"}}, "type": "Point", "coordinates": [-52.240453, -15.89935]}, "properties": {"COD": "SJVO", "NOME": "Aragarças", "TIPO": "Aeródromo", "ALT_M": 323, "COMP_M": 1010, "GEOCOD": "AERO005", "LARG_M": 30, "MUNICIPIO": "Aragarças", "REVESTIMENTO": "Asfalto"}}, {"type": "Feature", "geometry": {"crs": {"type": "name", "properties": {"name": "EPSG:4674"}}, "type": "Point", "coordinates": [-51.049047, -14.933523]}, "properties": {"COD": "SWNH", "NOME": "Aruanã", "TIPO": "Aeródromo", "ALT_M": 250, "COMP_M": 1300, "GEOCOD": "AERO006", "LARG_M": 23, "MUNICIPIO": "Aruanã", "REVESTIMENTO": "Asfalto"}}, {"type": "Feature", "geometry": {"crs": {"type": "name", "properties": {"name": "EPSG:4674"}}, "type": "Point", "coordinates": [-47.968717, -16.261665]}, "properties": {"COD": "SWUZ", "NOME": "Brigadeiro Araripe Macedo", "TIPO": "Aeródromo", "ALT_M": 996, "COMP_M": 1200, "GEOCOD": "AERO007", "LARG_M": 20, "MUNICIPIO": "Luziânia", "REVESTIMENTO": "Asfalto"}}, {"type": "Feature", "geometry": {"crs": {"type": "name", "properties": {"name": "EPSG:4674"}}, "type": "Point", "coordinates": [-49.047086, -18.119404]}, "properties": {"COD": "SWBA", "NOME": "Buriti Alegre", "TIPO": "Aeródromo", "ALT_M": 868, "COMP_M": 1200, "GEOCOD": "AERO008", "LARG_M": 30, "MUNICIPIO": "Buriti Alegre", "REVESTIMENTO": "Terra"}}, {"type": "Feature", "geometry": {"crs": {"type": "name", "properties": {"name": "EPSG:4674"}}, "type": "Point", "coordinates": [-51.85249, -16.927357]}, "properties": {"COD": "36", "NOME": "Caiapônia", "TIPO": "Aeródromo", "ALT_M": null, "COMP_M": null, "GEOCOD": "AERO009", "LARG_M": null, "MUNICIPIO": "Caiapônia", "REVESTIMENTO": null}}, {"type": "Feature", "geometry": {"crs": {"type": "name", "properties": {"name": "EPSG:4674"}}, "type": "Point", "coordinates": [-46.710714, -13.007855]}, "properties": {"COD": "SWCB", "NOME": "Campos Belos", "TIPO": "Aeródromo", "ALT_M": 670, "COMP_M": 1200, "GEOCOD": "AERO010", "LARG_M": 20, "MUNICIPIO": "Campos Belos", "REVESTIMENTO": "Terra"}}, {"type": "Feature", "geometry": {"crs": {"type": "name", "properties": {"name": "EPSG:4674"}}, "type": "Point", "coordinates": [-47.899167, -18.217574]}, "properties": {"COD": "SWKT", "NOME": "Catalão", "TIPO": "Aeródromo", "ALT_M": 796, "COMP_M": 1400, "GEOCOD": "AERO011", "LARG_M": 30, "MUNICIPIO": "Catalão", "REVESTIMENTO": "Asfalto"}}, {"type": "Feature", "geometry": {"crs": {"type": "name", "properties": {"name": "EPSG:4674"}}, "type": "Point", "coordinates": [-47.412868, -13.778438]}, "properties": {"COD": "SWCW", "NOME": "Cavalcante", "TIPO": "Aeródromo", "ALT_M": 800, "COMP_M": 1000, "GEOCOD": "AERO012", "LARG_M": 99, "MUNICIPIO": "Cavalcante", "REVESTIMENTO": "Terra"}}, {"type": "Feature", "geometry": {"crs": {"type": "name", "properties": {"name": "EPSG:4674"}}, "type": "Point", "coordinates": [-49.604047, -15.344352]}, "properties": {"COD": "SWCZ", "NOME": "Ceres", "TIPO": "Aeródromo", "ALT_M": 598, "COMP_M": 1200, "GEOCOD": "AERO013", "LARG_M": 23, "MUNICIPIO": "Ceres", "REVESTIMENTO": "Asfalto"}}, {"type": "Feature", "geometry": {"crs": {"type": "name", "properties": {"name": "EPSG:4674"}}, "type": "Point", "coordinates": [-47.644517, -16.790649]}, "properties": {"COD": "SDXB", "NOME": "Cristalina", "TIPO": "Aeródromo", "ALT_M": 1200, "COMP_M": 1100, "GEOCOD": "AERO014", "LARG_M": 23, "MUNICIPIO": "Cristalina", "REVESTIMENTO": "Asfalto"}}, {"type": "Feature", "geometry": {"crs": {"type": "name", "properties": {"name": "EPSG:4674"}}, "type": "Point", "coordinates": [-49.934556, -14.53813]}, "properties": {"COD": "42", "NOME": "Crixás", "TIPO": "Aeródromo", "ALT_M": null, "COMP_M": null, "GEOCOD": "AERO015", "LARG_M": null, "MUNICIPIO": "Crixás", "REVESTIMENTO": null}}, {"type": "Feature", "geometry": {"crs": {"type": "name", "properties": {"name": "EPSG:4674"}}, "type": "Point", "coordinates": [-47.344287, -15.555503]}, "properties": {"COD": "SWFR", "NOME": "Formosa", "TIPO": "Aeródromo", "ALT_M": 965, "COMP_M": 1400, "GEOCOD": "AERO016", "LARG_M": 30, "MUNICIPIO": "Formosa", "REVESTIMENTO": "Asfalto"}}, {"type": "Feature", "geometry": {"crs": {"type": "name", "properties": {"name": "EPSG:4674"}}, "type": "Point", "coordinates": [-50.956651, -17.837329]}, "properties": {"COD": "SWLC", "NOME": "General Leite de Castro", "TIPO": "Aeroporto", "ALT_M": 751, "COMP_M": 1500, "GEOCOD": "AERO017", "LARG_M": 30, "MUNICIPIO": "Rio Verde", "REVESTIMENTO": "Asfalto"}}, {"type": "Feature", "geometry": {"crs": {"type": "name", "properties": {"name": "EPSG:4674"}}, "type": "Point", "coordinates": [-50.193209, -15.920624]}, "properties": {"COD": "37", "NOME": "Goiás", "TIPO": "Aeródromo", "ALT_M": null, "COMP_M": null, "GEOCOD": "AERO018", "LARG_M": null, "MUNICIPIO": "Goiás", "REVESTIMENTO": null}}, {"type": "Feature", "geometry": {"crs": {"type": "name", "properties": {"name": "EPSG:4674"}}, "type": "Point", "coordinates": [-49.34397, -17.99932]}, "properties": {"COD": "43", "NOME": "Goiatuba", "TIPO": "Aeródromo", "ALT_M": null, "COMP_M": null, "GEOCOD": "AERO019", "LARG_M": null, "MUNICIPIO": "Goiatuba", "REVESTIMENTO": null}}, {"type": "Feature", "geometry": {"crs": {"type": "name", "properties": {"name": "EPSG:4674"}}, "type": "Point", "coordinates": [-46.667443, -14.106645]}, "properties": {"COD": "SWIA", "NOME": "Iaciara", "TIPO": "Aeródromo", "ALT_M": 565, "COMP_M": 1500, "GEOCOD": "AERO020", "LARG_M": 25, "MUNICIPIO": "Iaciara", "REVESTIMENTO": "Terra"}}, {"type": "Feature", "geometry": {"crs": {"type": "name", "properties": {"name": "EPSG:4674"}}, "type": "Point", "coordinates": [-48.162312, -17.688007]}, "properties": {"COD": "SWIP", "NOME": "Ipameri", "TIPO": "Aeródromo", "ALT_M": 832, "COMP_M": 1105, "GEOCOD": "AERO021", "LARG_M": 30, "MUNICIPIO": "Ipameri", "REVESTIMENTO": "Terra"}}, {"type": "Feature", "geometry": {"crs": {"type": "name", "properties": {"name": "EPSG:4674"}}, "type": "Point", "coordinates": [-51.089236, -16.405603]}, "properties": {"COD": "38", "NOME": "Iporá", "TIPO": "Aeródromo", "ALT_M": null, "COMP_M": null, "GEOCOD": "AERO022", "LARG_M": null, "MUNICIPIO": "Iporá", "REVESTIMENTO": null}}, {"type": "Feature", "geometry": {"crs": {"type": "name", "properties": {"name": "EPSG:4674"}}, "type": "Point", "coordinates": [-51.774028, -17.829991]}, "properties": {"COD": "SWJW", "NOME": "Jataí", "TIPO": "Aeródromo", "ALT_M": 771, "COMP_M": 1500, "GEOCOD": "AERO023", "LARG_M": 23, "MUNICIPIO": "Jataí", "REVESTIMENTO": "Asfalto"}}, {"type": "Feature", "geometry": {"crs": {"type": "name", "properties": {"name": "EPSG:4674"}}, "type": "Point", "coordinates": [-47.968392, -16.261746]}, "properties": {"COD": "39", "NOME": "Luziânia", "TIPO": "Aeródromo", "ALT_M": null, "COMP_M": null, "GEOCOD": "AERO024", "LARG_M": null, "MUNICIPIO": "Luziânia", "REVESTIMENTO": null}}, {"type": "Feature", "geometry": {"crs": {"type": "name", "properties": {"name": "EPSG:4674"}}, "type": "Point", "coordinates": [-48.194892, -13.54842]}, "properties": {"COD": "SWIQ", "NOME": "Minaçu", "TIPO": "Aeródromo", "ALT_M": 427, "COMP_M": 1275, "GEOCOD": "AERO025", "LARG_M": 30, "MUNICIPIO": "Minaçu", "REVESTIMENTO": "Asfalto"}}, {"type": "Feature", "geometry": {"crs": {"type": "name", "properties": {"name": "EPSG:4674"}}, "type": "Point", "coordinates": [-52.556794, -17.551104]}, "properties": {"COD": "SWME", "NOME": "Mineiros", "TIPO": "Aeródromo", "ALT_M": 825, "COMP_M": 1000, "GEOCOD": "AERO026", "LARG_M": 18, "MUNICIPIO": "Mineiros", "REVESTIMENTO": "Asfalto"}}, {"type": "Feature", "geometry": {"crs": {"type": "name", "properties": {"name": "EPSG:4674"}}, "type": "Point", "coordinates": [-46.870823, -13.249446]}, "properties": {"COD": "SWML", "NOME": "Monte Alegre de Goiás", "TIPO": "Aeródromo", "ALT_M": 555, "COMP_M": 900, "GEOCOD": "AERO027", "LARG_M": 45, "MUNICIPIO": "Monte Alegre de Goiás", "REVESTIMENTO": "Asfalto"}}, {"type": "Feature", "geometry": {"crs": {"type": "name", "properties": {"name": "EPSG:4674"}}, "type": "Point", "coordinates": [-49.121902, -17.762187]}, "properties": {"COD": "SWMX", "NOME": "Morrinhos", "TIPO": "Aeródromo", "ALT_M": 850, "COMP_M": 1085, "GEOCOD": "AERO028", "LARG_M": 20, "MUNICIPIO": "Morrinhos", "REVESTIMENTO": "Terra"}}, {"type": "Feature", "geometry": {"crs": {"type": "name", "properties": {"name": "EPSG:4674"}}, "type": "Point", "coordinates": [-50.564315, -14.770485]}, "properties": {"COD": "SDOV", "NOME": "Mozarlândia", "TIPO": "Aeródromo", "ALT_M": 328, "COMP_M": 1500, "GEOCOD": "AERO029", "LARG_M": 30, "MUNICIPIO": "Mozarlândia", "REVESTIMENTO": "Asfalto"}}, {"type": "Feature", "geometry": {"crs": {"type": "name", "properties": {"name": "EPSG:4674"}}, "type": "Point", "coordinates": [-48.605928, -17.724933]}, "properties": {"COD": "SBCN", "NOME": "Nelson Rodrigues Guimarães", "TIPO": "Aeroporto", "ALT_M": 685, "COMP_M": 2100, "GEOCOD": "AERO030", "LARG_M": 30, "MUNICIPIO": "Caldas Novas", "REVESTIMENTO": "Asfalto"}}, {"type": "Feature", "geometry": {"crs": {"type": "name", "properties": {"name": "EPSG:4674"}}, "type": "Point", "coordinates": [-48.491501, -14.43595]}, "properties": {"COD": "SWNQ", "NOME": "Niquelândia", "TIPO": "Aeródromo", "ALT_M": 840, "COMP_M": 1400, "GEOCOD": "AERO031", "LARG_M": 50, "MUNICIPIO": "Niquelândia", "REVESTIMENTO": "Terra"}}, {"type": "Feature", "geometry": {"crs": {"type": "name", "properties": {"name": "EPSG:4674"}}, "type": "Point", "coordinates": [-46.345266, -14.118129]}, "properties": {"COD": "SWPZ", "NOME": "Oriçanga de Abreu", "TIPO": "Aeródromo", "ALT_M": 827, "COMP_M": 1500, "GEOCOD": "AERO032", "LARG_M": 25, "MUNICIPIO": "Posse", "REVESTIMENTO": "Asfalto"}}, {"type": "Feature", "geometry": {"crs": {"type": "name", "properties": {"name": "EPSG:4674"}}, "type": "Point", "coordinates": [-49.879338, -16.824977]}, "properties": {"COD": "40", "NOME": "Palmeiras de Goiás", "TIPO": "Aeródromo", "ALT_M": null, "COMP_M": null, "GEOCOD": "AERO033", "LARG_M": null, "MUNICIPIO": "Palmeiras de Goiás", "REVESTIMENTO": null}}, {"type": "Feature", "geometry": {"crs": {"type": "name", "properties": {"name": "EPSG:4674"}}, "type": "Point", "coordinates": [-48.982621, -15.848716]}, "properties": {"COD": "SNMH", "NOME": "Pirenópolis", "TIPO": "Aeródromo", "ALT_M": 785, "COMP_M": 1295, "GEOCOD": "AERO034", "LARG_M": 30, "MUNICIPIO": "Pirenópolis", "REVESTIMENTO": "Asfalto"}}, {"type": "Feature", "geometry": {"crs": {"type": "name", "properties": {"name": "EPSG:4674"}}, "type": "Point", "coordinates": [-48.334596, -17.318716]}, "properties": {"COD": "SWPR", "NOME": "Pires do Rio", "TIPO": "Aeródromo", "ALT_M": 781, "COMP_M": 1080, "GEOCOD": "AERO035", "LARG_M": 18, "MUNICIPIO": "Pires do Rio", "REVESTIMENTO": "Asfalto"}}, {"type": "Feature", "geometry": {"crs": {"type": "name", "properties": {"name": "EPSG:4674"}}, "type": "Point", "coordinates": [-49.158858, -13.404372]}, "properties": {"COD": "SWWA", "NOME": "Porangatu", "TIPO": "Aeródromo", "ALT_M": 366, "COMP_M": 1500, "GEOCOD": "AERO036", "LARG_M": 23, "MUNICIPIO": "Porangatu", "REVESTIMENTO": "Asfalto"}}, {"type": "Feature", "geometry": {"crs": {"type": "name", "properties": {"name": "EPSG:4674"}}, "type": "Point", "coordinates": [-50.410081, -18.447621]}, "properties": {"COD": "SJQN", "NOME": "Quirinópolis", "TIPO": "Aeródromo", "ALT_M": 586, "COMP_M": 1500, "GEOCOD": "AERO037", "LARG_M": 30, "MUNICIPIO": "Quirinópolis", "REVESTIMENTO": "Asfalto"}}, {"type": "Feature", "geometry": {"crs": {"type": "name", "properties": {"name": "EPSG:4674"}}, "type": "Point", "coordinates": [-49.220218, -16.632641]}, "properties": {"COD": "SBGO", "NOME": "Santa Genoveva", "TIPO": "Aeroporto", "ALT_M": 747, "COMP_M": 2500, "GEOCOD": "AERO038", "LARG_M": 45, "MUNICIPIO": "Goiânia", "REVESTIMENTO": "Asfalto"}}, {"type": "Feature", "geometry": {"crs": {"type": "name", "properties": {"name": "EPSG:4674"}}, "type": "Point", "coordinates": [-50.592346, -17.784388]}, "properties": {"COD": "SWHG", "NOME": "Santa Helena de Goiás", "TIPO": "Aeródromo", "ALT_M": 485, "COMP_M": 1000, "GEOCOD": "AERO039", "LARG_M": 20, "MUNICIPIO": "Santa Helena de Goiás", "REVESTIMENTO": "Asfalto"}}, {"type": "Feature", "geometry": {"crs": {"type": "name", "properties": {"name": "EPSG:4674"}}, "type": "Point", "coordinates": [-53.193923, -17.32028]}, "properties": {"COD": "SIFH", "NOME": "Santa Rita do Araguaia", "TIPO": "Aeródromo", "ALT_M": 751, "COMP_M": 1200, "GEOCOD": "AERO040", "LARG_M": 23, "MUNICIPIO": "Santa Rita do Araguaia", "REVESTIMENTO": "Cascalho"}}, {"type": "Feature", "geometry": {"crs": {"type": "name", "properties": {"name": "EPSG:4674"}}, "type": "Point", "coordinates": [-50.800738, -13.70869]}, "properties": {"COD": "41", "NOME": "São José dos Bandeirantes", "TIPO": "Aeródromo", "ALT_M": null, "COMP_M": null, "GEOCOD": "AERO041", "LARG_M": null, "MUNICIPIO": "Nova Crixás", "REVESTIMENTO": null}}, {"type": "Feature", "geometry": {"crs": {"type": "name", "properties": {"name": "EPSG:4674"}}, "type": "Point", "coordinates": [-50.197595, -13.331319]}, "properties": {"COD": "SWUA", "NOME": "São Miguel do Araguaia", "TIPO": "Aeródromo", "ALT_M": 381, "COMP_M": 1500, "GEOCOD": "AERO042", "LARG_M": 30, "MUNICIPIO": "São Miguel do Araguaia", "REVESTIMENTO": "Asfalto"}}, {"type": "Feature", "geometry": {"crs": {"type": "name", "properties": {"name": "EPSG:4674"}}, "type": "Point", "coordinates": [-49.090699, -14.546388]}, "properties": {"COD": "SWWU", "NOME": "Uruaçu", "TIPO": "Aeródromo", "ALT_M": 520, "COMP_M": 1440, "GEOCOD": "AERO043", "LARG_M": 30, "MUNICIPIO": "Uruaçu", "REVESTIMENTO": "Asfalto"}}]}