{"type": "FeatureCollection", "features": [{"type": "Feature", "geometry": {"crs": {"type": "name", "properties": {"name": "EPSG:4674"}}, "type": "MultiPolygon", "coordinates": [[[[-52.223507, -15.896131], [-52.125442, -15.908355], [-52.037645, -15.904563], [-51.99185, -15.917689], [-51.985141, -15.920897], [-51.94343, -15.898146], [-51.875466, -15.883561], [-51.833172, -15.891437], [-51.763458, -15.887062], [-51.722914, -15.884437], [-51.694329, -15.885895], [-51.677119, -15.869269], [-51.604781, -15.854393], [-51.546443, -15.866935], [-51.444644, -15.884728], [-51.400599, -15.921481], [-51.376681, -15.937815], [-51.356846, -15.939565], [-51.336136, -15.930815], [-51.31251, -15.923814], [-51.293258, -15.917981], [-51.259423, -15.917689], [-51.197293, -15.939274], [-51.159082, -15.923814], [-51.136622, -15.922939], [-51.112121, -15.902375], [-51.091338, -15.887937], [-51.073107, -15.88378], [-51.050064, -15.884291], [-50.975903, -15.879551], [-50.971017, -15.875248], [-50.957745, -15.874155], [-50.942067, -15.868102], [-50.931274, -15.866498], [-50.905679, -15.87029], [-50.877093, -15.876853], [-50.850477, -15.871967], [-50.816423, -15.870946], [-50.751449, -15.85483], [-50.743975, -15.852643], [-50.723848, -15.844512], [-50.694424, -15.836308], [-50.638347, -15.820593], [-50.627555, -15.8164], [-50.624711, -15.814942], [-50.622633, -15.814687], [-50.613189, -15.816072], [-50.606991, -15.817093], [-50.60072, -15.818369], [-50.571332, -15.841085], [-50.562181, -15.843746], [-50.540231, -15.855231], [-50.537132, -15.856872], [-50.528636, -15.870071], [-50.509896, -15.877947], [-50.506177, -15.878457], [-50.496405, -15.874519], [-50.494035, -15.873936], [-50.491373, -15.874228], [-50.482914, -15.878749], [-50.476753, -15.884035], [-50.461986, -15.892567], [-50.456918, -15.894791], [-50.449589, -15.894354], [-50.44124, -15.894791], [-50.427384, -15.901136], [-50.417649, -15.900771], [-50.409737, -15.898729], [-50.402956, -15.898912], [-50.371818, -15.894208], [-50.342795, -15.897964], [-50.325185, -15.900917], [-50.31534, -15.895557], [-50.310928, -15.893552], [-50.294995, -15.889286], [-50.279864, -15.885202], [-50.278004, -15.884655], [-50.276035, -15.884947], [-50.265607, -15.890598], [-50.254195, -15.898146], [-50.251971, -15.900406], [-50.250148, -15.902339], [-50.248252, -15.903177], [-50.241616, -15.903761], [-50.239939, -15.904089], [-50.234069, -15.907188], [-50.231188, -15.909339], [-50.228709, -15.913496], [-50.210989, -15.926585], [-50.207306, -15.92932], [-50.204645, -15.929393], [-50.201874, -15.927934], [-50.197717, -15.926111], [-50.191373, -15.925564], [-50.187034, -15.926038], [-50.182878, -15.925236], [-50.179013, -15.925346], [-50.167199, -15.93107], [-50.164939, -15.935518], [-50.161548, -15.939274], [-50.154803, -15.943394], [-50.14649, -15.951087], [-50.142224, -15.95641], [-50.137374, -15.958051], [-50.13052, -15.9594], [-50.12815, -15.963192], [-50.119873, -15.966474], [-50.113164, -15.966255], [-50.109956, -15.968479], [-50.102299, -15.977266], [-50.100695, -15.979016], [-50.099455, -15.979672], [-50.092783, -15.9796], [-50.08148, -15.982918], [-50.077141, -15.986819], [-50.075391, -15.989553], [-50.074552, -15.992507], [-50.074188, -15.996991], [-50.072948, -15.999325], [-50.070614, -16.000929], [-50.065656, -16.002351], [-50.03532, -16.003226], [-50.033339, -16.003469], [-50.04576, -16.012973], [-50.047243, -16.014748], [-50.050792, -16.02554], [-50.053563, -16.034291], [-50.054584, -16.035847], [-50.063699, -16.041243], [-50.074953, -16.048049], [-50.076242, -16.048973], [-50.085114, -16.058963], [-50.099309, -16.07469], [-50.10874, -16.082468], [-50.125877, -16.098073], [-50.138395, -16.109546], [-50.144107, -16.11521], [-50.147024, -16.11696], [-50.149455, -16.118248], [-50.161025, -16.119755], [-50.166519, -16.121578], [-50.175002, -16.123742], [-50.189246, -16.127558], [-50.190705, -16.127558], [-50.200525, -16.125346], [-50.203442, -16.124325], [-50.204171, -16.125006], [-50.206358, -16.126756], [-50.209421, -16.128676], [-50.214453, -16.130135], [-50.215692, -16.133902], [-50.221162, -16.134631], [-50.229013, -16.131666], [-50.231176, -16.131131], [-50.233485, -16.132347], [-50.237083, -16.139225], [-50.246247, -16.142628], [-50.262046, -16.156143], [-50.271818, -16.16239], [-50.283072, -16.170363], [-50.285333, -16.17311], [-50.28735, -16.173669], [-50.292625, -16.17379], [-50.296247, -16.176707], [-50.299091, -16.182128], [-50.300403, -16.183781], [-50.307112, -16.188375], [-50.309664, -16.192629], [-50.311463, -16.198389], [-50.308352, -16.200115], [-50.298118, -16.213338], [-50.300282, -16.215502], [-50.301813, -16.219488], [-50.302761, -16.22153], [-50.304924, -16.223304], [-50.311876, -16.227388], [-50.313699, -16.22994], [-50.314745, -16.231058], [-50.320943, -16.236382], [-50.325343, -16.238594], [-50.326388, -16.239639], [-50.331152, -16.247563], [-50.335552, -16.254004], [-50.341118, -16.270339], [-50.346757, -16.281229], [-50.35264, -16.294841], [-50.353296, -16.297782], [-50.356091, -16.316912], [-50.356164, -16.319488], [-50.355216, -16.341195], [-50.355508, -16.34523], [-50.35682, -16.364991], [-50.357671, -16.378142], [-50.359203, -16.382882], [-50.365717, -16.402133], [-50.370894, -16.416669], [-50.374127, -16.421579], [-50.381906, -16.433271], [-50.384409, -16.443674], [-50.388104, -16.458259], [-50.38825, -16.46154], [-50.388469, -16.484972], [-50.388566, -16.503178], [-50.389951, -16.511394], [-50.389344, -16.519707], [-50.388517, -16.52943], [-50.375294, -16.527802], [-50.373568, -16.52785], [-50.366106, -16.530232], [-50.364356, -16.531302], [-50.3593, -16.538157], [-50.350573, -16.540928], [-50.34858, -16.54207], [-50.347486, -16.543528], [-50.344886, -16.547247], [-50.342844, -16.549289], [-50.336986, -16.552036], [-50.33176, -16.555998], [-50.32578, -16.557797], [-50.320092, -16.561516], [-50.307695, -16.569732], [-50.29875, -16.575371], [-50.300476, -16.585993], [-50.301424, -16.588667], [-50.302688, -16.600626], [-50.291798, -16.631545], [-50.292285, -16.636601], [-50.297049, -16.641171], [-50.301424, -16.660325], [-50.303369, -16.670826], [-50.29948, -16.680062], [-50.302202, -16.68891], [-50.32262, -16.702231], [-50.330885, -16.713315], [-50.326315, -16.730233], [-50.325537, -16.734511], [-50.334093, -16.745984], [-50.341094, -16.752498], [-50.358887, -16.763388], [-50.374054, -16.781472], [-50.382416, -16.80578], [-50.384263, -16.808016], [-50.408571, -16.821531], [-50.407501, -16.833879], [-50.408862, -16.854005], [-50.41314, -16.869465], [-50.418877, -16.876076], [-50.421794, -16.887063], [-50.422961, -16.889202], [-50.438517, -16.892605], [-50.456894, -16.905245], [-50.459519, -16.911273], [-50.452032, -16.928094], [-50.446879, -16.938497], [-50.44542, -16.942678], [-50.445226, -16.949776], [-50.4251, -16.960763], [-50.425002, -16.964263], [-50.438128, -16.98964], [-50.451449, -16.998002], [-50.45631, -17.005197], [-50.462047, -17.009572], [-50.463894, -17.019781], [-50.451838, -17.041755], [-50.432197, -17.067618], [-50.420724, -17.077924], [-50.409932, -17.114482], [-50.409543, -17.116816], [-50.416738, -17.148707], [-50.395056, -17.220267], [-50.378332, -17.277049], [-50.377943, -17.281133], [-50.379791, -17.341804], [-50.381152, -17.388279], [-50.38086, -17.392849], [-50.380277, -17.394599], [-50.35772, -17.415309], [-50.354608, -17.417156], [-50.290437, -17.43738], [-50.28752, -17.43913], [-50.268366, -17.472285], [-50.24649, -17.492509], [-50.232878, -17.510496], [-50.229864, -17.514969], [-50.210904, -17.520705], [-50.200695, -17.519928], [-50.193792, -17.525275], [-50.191847, -17.5279], [-50.187861, -17.523914], [-50.180082, -17.515552], [-50.179402, -17.508746], [-50.17104, -17.496884], [-50.156164, -17.493578], [-50.13769, -17.485995], [-50.113091, -17.480064], [-50.099868, -17.481717], [-50.09102, -17.484633], [-50.081784, -17.490467], [-50.076728, -17.491634], [-50.072255, -17.48755], [-50.066032, -17.482981], [-50.064768, -17.476563], [-50.059421, -17.469855], [-50.049795, -17.465188], [-50.046781, -17.457604], [-50.041434, -17.453423], [-50.037739, -17.452645], [-50.031516, -17.455465], [-50.025002, -17.441075], [-50.01664, -17.42581], [-49.999139, -17.406753], [-49.996028, -17.402766], [-49.995055, -17.388863], [-49.989708, -17.37982], [-49.987374, -17.368056], [-49.983874, -17.356972], [-49.980179, -17.351818], [-49.958108, -17.342193], [-49.953149, -17.33247], [-49.947996, -17.328872], [-49.917272, -17.335095], [-49.909688, -17.350263], [-49.898604, -17.350846], [-49.888492, -17.356291], [-49.879353, -17.366403], [-49.846878, -17.384487], [-49.793596, -17.387404], [-49.772206, -17.405489], [-49.702784, -17.414823], [-49.638808, -17.426879], [-49.62014, -17.445547], [-49.608667, -17.46441], [-49.60225, -17.475494], [-49.599916, -17.487161], [-49.600111, -17.497079], [-49.595249, -17.504274], [-49.590193, -17.51283], [-49.579109, -17.514774], [-49.550524, -17.517886], [-49.54119, -17.519441], [-49.534967, -17.520219], [-49.528355, -17.525081], [-49.516882, -17.525664], [-49.507354, -17.522358], [-49.502298, -17.522553], [-49.492381, -17.529164], [-49.477407, -17.532665], [-49.460295, -17.517302], [-49.44046, -17.513997], [-49.417903, -17.513802], [-49.413042, -17.508357], [-49.396707, -17.507385], [-49.387179, -17.509913], [-49.360927, -17.507579], [-49.345954, -17.500968], [-49.324174, -17.499801], [-49.306673, -17.504274], [-49.296756, -17.512246], [-49.252614, -17.518275], [-49.213722, -17.523914], [-49.196999, -17.563972], [-49.177942, -17.614532], [-49.152273, -17.69776], [-49.151106, -17.729651], [-49.158107, -17.755708], [-49.163941, -17.763875], [-49.175997, -17.781766], [-49.196999, -17.791489], [-49.206333, -17.805101], [-49.213722, -17.831741], [-49.224612, -17.869855], [-49.234335, -17.899413], [-49.254364, -17.975446], [-49.261948, -18.002476], [-49.260781, -18.010254], [-49.26817, -18.056924], [-49.266615, -18.067425], [-49.268948, -18.076564], [-49.269143, -18.089982], [-49.286838, -18.14093], [-49.284699, -18.153764], [-49.289366, -18.181766], [-49.279449, -18.198684], [-49.25028, -18.248076], [-49.235307, -18.294746], [-49.207694, -18.379239], [-49.199624, -18.402768], [-49.191561, -18.414252], [-49.19456, -18.419154], [-49.199543, -18.417184], [-49.207769, -18.414903], [-49.210294, -18.416451], [-49.211597, -18.419301], [-49.210946, -18.421826], [-49.201824, -18.428342], [-49.198077, -18.434288], [-49.193109, -18.440315], [-49.191154, -18.446342], [-49.191561, -18.45017], [-49.193597, -18.453428], [-49.196611, -18.458396], [-49.199543, -18.461898], [-49.205896, -18.463853], [-49.2129, -18.465889], [-49.218113, -18.469799], [-49.222267, -18.47493], [-49.226258, -18.478758], [-49.23033, -18.484052], [-49.233751, -18.490812], [-49.235706, -18.497328], [-49.239452, -18.501807], [-49.244095, -18.506613], [-49.244665, -18.51378], [-49.244991, -18.51883], [-49.247597, -18.522739], [-49.251914, -18.526486], [-49.256149, -18.527382], [-49.264375, -18.5273], [-49.271787, -18.52844], [-49.277488, -18.531617], [-49.284492, -18.536422], [-49.287669, -18.541879], [-49.288646, -18.546603], [-49.289379, -18.558902], [-49.290927, -18.56387], [-49.294348, -18.566639], [-49.298583, -18.567698], [-49.303144, -18.567291], [-49.314709, -18.563951], [-49.322284, -18.561508], [-49.325623, -18.561915], [-49.32823, -18.564359], [-49.33108, -18.569816], [-49.334419, -18.578938], [-49.338248, -18.588304], [-49.342646, -18.598159], [-49.348428, -18.605978], [-49.357469, -18.61624], [-49.370663, -18.6331], [-49.374003, -18.638638], [-49.378971, -18.644177], [-49.385161, -18.647353], [-49.392736, -18.648331], [-49.400147, -18.647923], [-49.405197, -18.646457], [-49.409677, -18.64434], [-49.415215, -18.63929], [-49.421079, -18.631715], [-49.423523, -18.624304], [-49.426292, -18.616566], [-49.436147, -18.606222], [-49.445025, -18.596693], [-49.45602, -18.579589], [-49.464898, -18.573725], [-49.478418, -18.565417], [-49.482816, -18.561182], [-49.4864, -18.551734], [-49.487296, -18.542694], [-49.487296, -18.532676], [-49.487947, -18.526649], [-49.487621, -18.516875], [-49.486807, -18.508323], [-49.490716, -18.502785], [-49.491694, -18.500504], [-49.491775, -18.497979], [-49.495033, -18.494151], [-49.500816, -18.491952], [-49.504481, -18.493744], [-49.510427, -18.492278], [-49.516372, -18.493744], [-49.523377, -18.493663], [-49.529485, -18.493337], [-49.534616, -18.492604], [-49.540318, -18.495373], [-49.544879, -18.499853], [-49.546101, -18.505228], [-49.54496, -18.511011], [-49.541702, -18.520296], [-49.540888, -18.525183], [-49.540725, -18.53064], [-49.543657, -18.536667], [-49.549277, -18.543427], [-49.555467, -18.547255], [-49.559132, -18.547581], [-49.564019, -18.545952], [-49.570372, -18.543427], [-49.576317, -18.543427], [-49.592037, -18.547255], [-49.603765, -18.547499], [-49.622824, -18.552304], [-49.629665, -18.553608], [-49.640172, -18.55597], [-49.649457, -18.561019], [-49.652633, -18.567291], [-49.651737, -18.572666], [-49.647746, -18.57739], [-49.638462, -18.585209], [-49.634715, -18.588956], [-49.6339, -18.591725], [-49.634634, -18.595716], [-49.636425, -18.599299], [-49.642208, -18.602557], [-49.647991, -18.603046], [-49.657683, -18.598974], [-49.665258, -18.592702], [-49.67381, -18.590177], [-49.681791, -18.589933], [-49.693683, -18.591806], [-49.704841, -18.596286], [-49.712008, -18.602232], [-49.723411, -18.611924], [-49.731881, -18.617055], [-49.738071, -18.617869], [-49.746216, -18.616322], [-49.757537, -18.610865], [-49.765356, -18.611354], [-49.770895, -18.613553], [-49.773582, -18.618114], [-49.773501, -18.622838], [-49.773582, -18.626666], [-49.77684, -18.634485], [-49.781971, -18.641163], [-49.784089, -18.643199], [-49.787917, -18.643444], [-49.792478, -18.644828], [-49.798912, -18.64491], [-49.819111, -18.633833], [-49.822613, -18.633181], [-49.828152, -18.635625], [-49.832143, -18.637091], [-49.835889, -18.63758], [-49.838496, -18.636765], [-49.851934, -18.624874], [-49.855029, -18.624059], [-49.859102, -18.624874], [-49.866432, -18.625037], [-49.870016, -18.622675], [-49.87026, -18.619173], [-49.872133, -18.613308], [-49.882233, -18.61005], [-49.888748, -18.610702], [-49.892658, -18.614449], [-49.895916, -18.617951], [-49.903653, -18.622023], [-49.907318, -18.622267], [-49.913183, -18.621372], [-49.920513, -18.623489], [-49.931427, -18.625037], [-49.938187, -18.624222], [-49.945843, -18.622756], [-49.967996, -18.617299], [-49.975571, -18.614449], [-49.980051, -18.606793], [-49.988521, -18.605082], [-49.998376, -18.604512], [-50.00196, -18.602476], [-50.013688, -18.600114], [-50.021426, -18.600358], [-50.028349, -18.602232], [-50.033969, -18.607933], [-50.0391, -18.61396], [-50.041299, -18.618928], [-50.042602, -18.624874], [-50.044312, -18.632041], [-50.049036, -18.64377], [-50.051968, -18.647109], [-50.056122, -18.650774], [-50.060928, -18.652321], [-50.067443, -18.656801], [-50.071027, -18.660711], [-50.073796, -18.666249], [-50.07852, -18.672765], [-50.082348, -18.673335], [-50.09709, -18.671706], [-50.102954, -18.670484], [-50.112321, -18.670077], [-50.12185, -18.670403], [-50.12918, -18.669751], [-50.137488, -18.668285], [-50.14661, -18.66633], [-50.155895, -18.665272], [-50.164447, -18.66519], [-50.172999, -18.666982], [-50.180899, -18.670077], [-50.191162, -18.676267], [-50.198329, -18.680095], [-50.202401, -18.680421], [-50.207777, -18.679851], [-50.224229, -18.682457], [-50.230582, -18.68205], [-50.241333, -18.679688], [-50.250048, -18.678955], [-50.256971, -18.680502], [-50.275867, -18.687751], [-50.295414, -18.691986], [-50.304862, -18.695896], [-50.313251, -18.701108], [-50.318219, -18.706484], [-50.322617, -18.712185], [-50.331332, -18.725217], [-50.338336, -18.74004], [-50.344689, -18.751605], [-50.351531, -18.760565], [-50.356581, -18.771071], [-50.36049, -18.780031], [-50.362445, -18.786546], [-50.364725, -18.794935], [-50.369123, -18.804628], [-50.371893, -18.8087], [-50.37735, -18.815379], [-50.384273, -18.820184], [-50.39201, -18.823197], [-50.397711, -18.824012], [-50.406345, -18.824826], [-50.418317, -18.82841], [-50.423041, -18.833215], [-50.425974, -18.8447], [-50.42972, -18.859197], [-50.434933, -18.877278], [-50.44039, -18.890799], [-50.442589, -18.894382], [-50.452525, -18.905622], [-50.461322, -18.914825], [-50.468245, -18.919957], [-50.477937, -18.924355], [-50.484127, -18.925821], [-50.491213, -18.928916], [-50.498054, -18.930708], [-50.500661, -18.930545], [-50.505222, -18.932907], [-50.507909, -18.935594], [-50.51019, -18.939015], [-50.511493, -18.94602], [-50.511412, -18.951802], [-50.507502, -18.960273], [-50.50343, -18.970698], [-50.500172, -18.976318], [-50.499357, -18.981531], [-50.500905, -18.985277], [-50.500335, -18.987802], [-50.499765, -18.992526], [-50.50009, -18.996354], [-50.502534, -19.000915], [-50.503022, -19.004417], [-50.501638, -19.007431], [-50.498217, -19.009141], [-50.4939, -19.013214], [-50.49781, -19.033331], [-50.500565, -19.04423], [-50.501149, -19.046688], [-50.50755, -19.045452], [-50.604001, -18.976225], [-50.664672, -18.922166], [-50.834629, -18.860134], [-50.849991, -18.853522], [-50.92583, -18.783323], [-50.929719, -18.766988], [-50.942553, -18.744626], [-50.997001, -18.662564], [-51.021503, -18.638062], [-51.049894, -18.602866], [-51.049894, -18.563585], [-51.056311, -18.548417], [-51.096564, -18.44866], [-51.095397, -18.422992], [-51.114649, -18.397907], [-51.12126, -18.359793], [-51.151596, -18.29601], [-51.18932, -18.287649], [-51.24338, -18.255952], [-51.256603, -18.257119], [-51.282855, -18.234951], [-51.303079, -18.22795], [-51.322524, -18.206949], [-51.334775, -18.198976], [-51.361999, -18.199559], [-51.377556, -18.198781], [-51.400502, -18.175446], [-51.434532, -18.164168], [-51.517372, -18.077828], [-51.538762, -18.070439], [-51.553346, -18.043409], [-51.555291, -18.019491], [-51.584654, -17.991489], [-51.586599, -17.978849], [-51.594377, -17.973599], [-51.608184, -17.975543], [-51.614601, -17.974765], [-51.620045, -17.966598], [-51.62374, -17.95707], [-51.644353, -17.951819], [-51.651742, -17.952986], [-51.658159, -17.952208], [-51.663021, -17.947541], [-51.660687, -17.932957], [-51.663215, -17.931401], [-51.676633, -17.938985], [-51.683828, -17.937429], [-51.694329, -17.921873], [-51.699579, -17.925956], [-51.708718, -17.926151], [-51.71883, -17.920317], [-51.742749, -17.925373], [-51.756361, -17.921484], [-51.770556, -17.916428], [-51.766861, -17.901844], [-51.763361, -17.87637], [-51.762389, -17.858285], [-51.746054, -17.84584], [-51.765111, -17.83845], [-51.78728, -17.828922], [-51.790002, -17.812198], [-51.795058, -17.799559], [-51.802058, -17.798975], [-51.811781, -17.786919], [-51.828699, -17.755611], [-51.827338, -17.73986], [-51.832783, -17.732859], [-51.839297, -17.68794], [-51.841874, -17.662101], [-51.847805, -17.653277], [-51.864334, -17.620414], [-51.865111, -17.605441], [-51.884752, -17.570827], [-51.887669, -17.548075], [-51.881446, -17.53038], [-51.882224, -17.508406], [-51.905364, -17.456097], [-51.912365, -17.436845], [-51.895058, -17.410788], [-51.890002, -17.39387], [-51.879112, -17.340783], [-51.879112, -17.318226], [-51.89253, -17.305197], [-51.901475, -17.278362], [-51.882613, -17.23947], [-51.897197, -17.209718], [-51.894086, -17.173938], [-51.88903, -17.136991], [-51.867445, -17.088765], [-51.864723, -17.070875], [-51.8585, -17.058041], [-51.857333, -17.034511], [-51.839637, -16.963145], [-51.830498, -16.952839], [-51.829331, -16.931837], [-51.822331, -16.927948], [-51.806774, -16.926392], [-51.797829, -16.878945], [-51.789662, -16.864944], [-51.783828, -16.834803], [-51.71674, -16.774132], [-51.714017, -16.764214], [-51.694572, -16.738351], [-51.684265, -16.712099], [-51.684849, -16.699654], [-51.68971, -16.694793], [-51.699822, -16.690709], [-51.699628, -16.677486], [-51.709545, -16.662124], [-51.727046, -16.6349], [-51.724907, -16.620899], [-51.747464, -16.581812], [-51.756409, -16.579673], [-51.762243, -16.563922], [-51.75427, -16.554199], [-51.75602, -16.545643], [-51.774688, -16.529698], [-51.782467, -16.516086], [-51.7813, -16.501696], [-51.791023, -16.482055], [-51.798607, -16.448414], [-51.803663, -16.425468], [-51.833804, -16.410884], [-51.836332, -16.396299], [-51.840804, -16.386771], [-51.872112, -16.380743], [-51.90867, -16.373937], [-51.926949, -16.362658], [-51.958257, -16.312488], [-51.987815, -16.285847], [-52.012705, -16.280013], [-52.03604, -16.271846], [-52.061125, -16.253372], [-52.074737, -16.233927], [-52.153104, -16.212731], [-52.171967, -16.193285], [-52.179939, -16.178506], [-52.168466, -16.131253], [-52.173717, -16.12153], [-52.169244, -16.100528], [-52.175856, -16.075443], [-52.172939, -16.038107], [-52.184995, -16.0173], [-52.189079, -15.996493], [-52.208136, -15.985992], [-52.213192, -15.972186], [-52.213192, -15.952546], [-52.212803, -15.927947], [-52.220678, -15.914723], [-52.222817, -15.900868], [-52.223507, -15.896131]]]]}, "properties": {"id": 1, "NOME": "Área de Influência da GO-174, GO-206, GO-210 e GO-401", "GEOCOD": "GEO0001", "AREA_KM2": 62331.46}}]}