{
"type": "FeatureCollection",
"name": "pedagios",
"crs": { "type": "name", "properties": { "name": "urn:ogc:def:crs:OGC:1.3:CRS84" } },
"features": [
{"type":"Feature","properties":{"ID":"PED001","NOME":"P01 - Ipameri","RODOVIA":"BR-050","KM":144.0,"MUNICIPIO":"Ipameri","OPERADOR":"Ecovias Minas Goiás","JURISDICAO":"FEDERAL","CONTRATO":"ATIVO","TIPO":"Praça física","ORGAO_FONTE":"ANTT","FONTE":"https://www.gov.br/antt/pt-br/assuntos/rodovias/concessionarias/lista-de-concessoes/eco050/localizacao-das-pracas-de-pedagio","OBS":"","LAT":-17.121178,"LONG":-47.721416,"PRECISAO":"OFICIAL"},"geometry":{"type":"Point","coordinates":[-47.721416,-17.121178]}},
{"type":"Feature","properties":{"ID":"PED002","NOME":"P02 - Campo Alegre","RODOVIA":"BR-050","KM":226.0,"MUNICIPIO":"Campo Alegre de Goiás","OPERADOR":"Ecovias Minas Goiás","JURISDICAO":"FEDERAL","CONTRATO":"ATIVO","TIPO":"Praça física","ORGAO_FONTE":"ANTT","FONTE":"https://www.gov.br/antt/pt-br/assuntos/rodovias/concessionarias/lista-de-concessoes/eco050/localizacao-das-pracas-de-pedagio","OBS":"","LAT":-17.772,"LONG":-47.749953,"PRECISAO":"OFICIAL"},"geometry":{"type":"Point","coordinates":[-47.749953,-17.772]}},
{"type":"Feature","properties":{"ID":"PED003","NOME":"P1 - Alexânia","RODOVIA":"BR-060","KM":43.1,"MUNICIPIO":"Alexânia","OPERADOR":"Concebra","JURISDICAO":"FEDERAL","CONTRATO":"ATIVO","TIPO":"Praça física","ORGAO_FONTE":"ANTT","FONTE":"https://www.gov.br/antt/pt-br/assuntos/rodovias/concessionarias/lista-de-concessoes/concebra/localizacao-das-pracas-de-pedagio","OBS":"","LAT":-16.1157,"LONG":-48.5892,"PRECISAO":"OFICIAL"},"geometry":{"type":"Point","coordinates":[-48.5892,-16.1157]}},
{"type":"Feature","properties":{"ID":"PED004","NOME":"P2 - Goianápolis","RODOVIA":"BR-060","KM":107.9,"MUNICIPIO":"Goianápolis","OPERADOR":"Concebra","JURISDICAO":"FEDERAL","CONTRATO":"ATIVO","TIPO":"Praça física","ORGAO_FONTE":"ANTT","FONTE":"https://www.gov.br/antt/pt-br/assuntos/rodovias/concessionarias/lista-de-concessoes/concebra/localizacao-das-pracas-de-pedagio","OBS":"","LAT":-16.4386,"LONG":-49.0191,"PRECISAO":"OFICIAL"},"geometry":{"type":"Point","coordinates":[-49.0191,-16.4386]}},
{"type":"Feature","properties":{"ID":"PED005","NOME":"P3 - Prof. Jamil","RODOVIA":"BR-153","KM":553.1,"MUNICIPIO":"Piracanjuba","OPERADOR":"Concebra","JURISDICAO":"FEDERAL","CONTRATO":"ATIVO","TIPO":"Praça física","ORGAO_FONTE":"ANTT","FONTE":"https://www.gov.br/antt/pt-br/assuntos/rodovias/concessionarias/lista-de-concessoes/concebra/localizacao-das-pracas-de-pedagio","OBS":"","LAT":-17.1632,"LONG":-49.2126,"PRECISAO":"OFICIAL"},"geometry":{"type":"Point","coordinates":[-49.2126,-17.1632]}},
{"type":"Feature","properties":{"ID":"PED006","NOME":"P4 - Itumbiara","RODOVIA":"BR-153","KM":685.8,"MUNICIPIO":"Itumbiara","OPERADOR":"Concebra","JURISDICAO":"FEDERAL","CONTRATO":"ATIVO","TIPO":"Praça física","ORGAO_FONTE":"ANTT","FONTE":"https://www.gov.br/antt/pt-br/assuntos/rodovias/concessionarias/lista-de-concessoes/concebra/localizacao-das-pracas-de-pedagio","OBS":"","LAT":-18.2685,"LONG":-49.2458,"PRECISAO":"OFICIAL"},"geometry":{"type":"Point","coordinates":[-49.2458,-18.2685]}},
{"type":"Feature","properties":{"ID":"PED007","NOME":"P3 - Porangatu","RODOVIA":"BR-153","KM":12.5,"MUNICIPIO":"Porangatu","OPERADOR":"Ecovias Araguaia","JURISDICAO":"FEDERAL","CONTRATO":"ATIVO","TIPO":"Praça física","ORGAO_FONTE":"ANTT","FONTE":"https://www.gov.br/antt/pt-br/assuntos/rodovias/concessionarias/lista-de-concessoes/ecovias-araguaia/localizacao-das-pracas-de-pedagio","OBS":"","LAT":-12.943414,"LONG":-49.133122,"PRECISAO":"OFICIAL"},"geometry":{"type":"Point","coordinates":[-49.133122,-12.943414]}},
{"type":"Feature","properties":{"ID":"PED008","NOME":"P4 - Estrela do Norte","RODOVIA":"BR-153","KM":116.12,"MUNICIPIO":"Estrela do Norte","OPERADOR":"Ecovias Araguaia","JURISDICAO":"FEDERAL","CONTRATO":"ATIVO","TIPO":"Praça física","ORGAO_FONTE":"ANTT","FONTE":"https://www.gov.br/antt/pt-br/assuntos/rodovias/concessionarias/lista-de-concessoes/ecovias-araguaia/localizacao-das-pracas-de-pedagio","OBS":"","LAT":-13.791358,"LONG":-49.034842,"PRECISAO":"OFICIAL"},"geometry":{"type":"Point","coordinates":[-49.034842,-13.791358]}},
{"type":"Feature","properties":{"ID":"PED009","NOME":"P5 - Campinorte","RODOVIA":"BR-153","KM":182.04,"MUNICIPIO":"Campinorte","OPERADOR":"Ecovias Araguaia","JURISDICAO":"FEDERAL","CONTRATO":"ATIVO","TIPO":"Praça física","ORGAO_FONTE":"ANTT","FONTE":"https://www.gov.br/antt/pt-br/assuntos/rodovias/concessionarias/lista-de-concessoes/ecovias-araguaia/localizacao-das-pracas-de-pedagio","OBS":"","LAT":-14.372969,"LONG":-49.158264,"PRECISAO":"OFICIAL"},"geometry":{"type":"Point","coordinates":[-49.158264,-14.372969]}},
{"type":"Feature","properties":{"ID":"PED010","NOME":"P6 - Hidrolina","RODOVIA":"BR-153","KM":233.4,"MUNICIPIO":"Hidrolina","OPERADOR":"Ecovias Araguaia","JURISDICAO":"FEDERAL","CONTRATO":"ATIVO","TIPO":"Praça física","ORGAO_FONTE":"ANTT","FONTE":"https://www.gov.br/antt/pt-br/assuntos/rodovias/concessionarias/lista-de-concessoes/ecovias-araguaia/localizacao-das-pracas-de-pedagio","OBS":"","LAT":-14.799372,"LONG":-49.284164,"PRECISAO":"OFICIAL"},"geometry":{"type":"Point","coordinates":[-49.284164,-14.799372]}},
{"type":"Feature","properties":{"ID":"PED011","NOME":"P7 - Jaraguá","RODOVIA":"BR-153","KM":367.5,"MUNICIPIO":"Jaraguá","OPERADOR":"Ecovias Araguaia","JURISDICAO":"FEDERAL","CONTRATO":"ATIVO","TIPO":"Praça física","ORGAO_FONTE":"ANTT","FONTE":"https://www.gov.br/antt/pt-br/assuntos/rodovias/concessionarias/lista-de-concessoes/ecovias-araguaia/localizacao-das-pracas-de-pedagio","OBS":"","LAT":-15.827072,"LONG":-49.281722,"PRECISAO":"OFICIAL"},"geometry":{"type":"Point","coordinates":[-49.281722,-15.827072]}},
{"type":"Feature","properties":{"ID":"PED012","NOME":"P8 - Santa Rita do Novo Destino","RODOVIA":"BR-080","KM":155.5,"MUNICIPIO":"Santa Rita do Novo Destino","OPERADOR":"Ecovias Araguaia","JURISDICAO":"FEDERAL","CONTRATO":"ATIVO","TIPO":"Praça física","ORGAO_FONTE":"ANTT","FONTE":"https://www.gov.br/antt/pt-br/assuntos/rodovias/concessionarias/lista-de-concessoes/ecovias-araguaia/localizacao-das-pracas-de-pedagio","OBS":"","LAT":-14.814189,"LONG":-49.042442,"PRECISAO":"OFICIAL"},"geometry":{"type":"Point","coordinates":[-49.042442,-14.814189]}},
{"type":"Feature","properties":{"ID":"PED013","NOME":"P9 - Corumbá de Goiás","RODOVIA":"BR-414","KM":404.08,"MUNICIPIO":"Corumbá de Goiás","OPERADOR":"Ecovias Araguaia","JURISDICAO":"FEDERAL","CONTRATO":"ATIVO","TIPO":"Praça física","ORGAO_FONTE":"ANTT","FONTE":"https://www.gov.br/antt/pt-br/assuntos/rodovias/concessionarias/lista-de-concessoes/ecovias-araguaia/localizacao-das-pracas-de-pedagio","OBS":"","LAT":-16.001028,"LONG":-48.840289,"PRECISAO":"OFICIAL"},"geometry":{"type":"Point","coordinates":[-48.840289,-16.001028]}},
{"type":"Feature","properties":{"ID":"PED014","NOME":"P5 - Paranaiguara","RODOVIA":"BR-364","KM":32.6,"MUNICIPIO":"Paranaiguara","OPERADOR":"Ecovias Cerrado","JURISDICAO":"FEDERAL","CONTRATO":"ATIVO","TIPO":"Praça física","ORGAO_FONTE":"ANTT","FONTE":"https://www.gov.br/antt/pt-br/assuntos/rodovias/concessionarias/lista-de-concessoes/ecovias-do-cerrado/localizacao-das-pracas-de-pedagio","OBS":"","LAT":-18.882177,"LONG":-50.75675,"PRECISAO":"OFICIAL"},"geometry":{"type":"Point","coordinates":[-50.75675,-18.882177]}},
{"type":"Feature","properties":{"ID":"PED015","NOME":"P6 - Cachoeira Alta","RODOVIA":"BR-364","KM":92.85,"MUNICIPIO":"Cachoeira Alta","OPERADOR":"Ecovias Cerrado","JURISDICAO":"FEDERAL","CONTRATO":"ATIVO","TIPO":"Praça física","ORGAO_FONTE":"ANTT","FONTE":"https://www.gov.br/antt/pt-br/assuntos/rodovias/concessionarias/lista-de-concessoes/ecovias-do-cerrado/localizacao-das-pracas-de-pedagio","OBS":"","LAT":-18.471225,"LONG":-51.082657,"PRECISAO":"OFICIAL"},"geometry":{"type":"Point","coordinates":[-51.082657,-18.471225]}},
{"type":"Feature","properties":{"ID":"PED016","NOME":"P7 - Jataí","RODOVIA":"BR-364","KM":156.18,"MUNICIPIO":"Jataí","OPERADOR":"Ecovias Cerrado","JURISDICAO":"FEDERAL","CONTRATO":"ATIVO","TIPO":"Praça física","ORGAO_FONTE":"ANTT","FONTE":"https://www.gov.br/antt/pt-br/assuntos/rodovias/concessionarias/lista-de-concessoes/ecovias-do-cerrado/localizacao-das-pracas-de-pedagio","OBS":"","LAT":-18.111396,"LONG":-51.480543,"PRECISAO":"OFICIAL"},"geometry":{"type":"Point","coordinates":[-51.480543,-18.111396]}},
{"type":"Feature","properties":{"ID":"PED017","NOME":"P1 - Jataí","RODOVIA":"BR-060","KM":439.15,"MUNICIPIO":"Jataí","OPERADOR":"Way-364 / Rota Agro MT-GO","JURISDICAO":"FEDERAL","CONTRATO":"ATIVO","TIPO":"Free Flow","ORGAO_FONTE":"ANTT","FONTE":"https://anttlegis.antt.gov.br/action/ActionDatalegis.php?acao=abrirTextoAto&cod_menu=8198&cod_modulo=540&link=S&numeroAto=00000060&orgao=DLA%2FANTT%2FMT&seqAto=ATT&tipo=VTO&valorAno=2026","OBS":"Cobrança eletrônica ativa desde 07/09/2026. Coordenadas oficiais da ANTT.","LAT":-17.838261111111109,"LONG":-51.424461111111107,"PRECISAO":"OFICIAL"},"geometry":{"type":"Point","coordinates":[-51.424461111111107,-17.838261111111109]}},
{"type":"Feature","properties":{"ID":"PED018","NOME":"P2 - Mineiros","RODOVIA":"BR-364","KM":258.66,"MUNICIPIO":"Mineiros","OPERADOR":"Way-364 / Rota Agro MT-GO","JURISDICAO":"FEDERAL","CONTRATO":"ATIVO","TIPO":"Free Flow","ORGAO_FONTE":"ANTT","FONTE":"https://anttlegis.antt.gov.br/action/ActionDatalegis.php?acao=abrirTextoAto&cod_menu=8198&cod_modulo=540&link=S&numeroAto=00000060&orgao=DLA%2FANTT%2FMT&seqAto=ATT&tipo=VTO&valorAno=2026","OBS":"Cobrança eletrônica ativa desde 07/09/2026. Município corrigido para Mineiros conforme fonte oficial.","LAT":-17.674806,"LONG":-52.215694,"PRECISAO":"OFICIAL"},"geometry":{"type":"Point","coordinates":[-52.215694,-17.674806]}},
{"type":"Feature","properties":{"ID":"PED019","NOME":"P3 - Portelândia","RODOVIA":"BR-364","KM":340.415,"MUNICIPIO":"Portelândia","OPERADOR":"Way-364 / Rota Agro MT-GO","JURISDICAO":"FEDERAL","CONTRATO":"ATIVO","TIPO":"Free Flow","ORGAO_FONTE":"ANTT","FONTE":"https://anttlegis.antt.gov.br/action/ActionDatalegis.php?acao=abrirTextoAto&cod_menu=8198&cod_modulo=540&link=S&numeroAto=00000060&orgao=DLA%2FANTT%2FMT&seqAto=ATT&tipo=VTO&valorAno=2026","OBS":"Cobrança eletrônica ativa desde 07/09/2026. Coordenadas oficiais da ANTT.","LAT":-17.387030555555555,"LONG":-52.817438888888894,"PRECISAO":"OFICIAL"},"geometry":{"type":"Point","coordinates":[-52.817438888888894,-17.387030555555555]}},
{"type":"Feature","properties":{"ID":"PED020","NOME":"Ponte Cocalinho / Aruanã","RODOVIA":"GO-454 / MT-326","KM":null,"MUNICIPIO":"Aruanã","OPERADOR":"Consórcio Caminhos do Sol","JURISDICAO":"ESTADUAL","CONTRATO":"ATIVO","TIPO":"Praça física","ORGAO_FONTE":"AGR / Governo de Goiás","FONTE":"https://goias.gov.br/agr/ponte-cocalinho-aruana/","OBS":"Contrato de concessão ativo. Coordenada usada é a referência oficial da cabeceira goiana da Ponte Cocalinho, não a posição exata publicada da praça de pedágio.","LAT":-14.408536,"LONG":-50.994897,"PRECISAO":"APROXIMADA"},"geometry":{"type":"Point","coordinates":[-50.994897,-14.408536]}},
{"type":"Feature","properties":{"ID":"PED021","NOME":"P1 - Cristalina","RODOVIA":"BR-040","KM":93.275,"MUNICIPIO":"Cristalina","OPERADOR":"Via 040","JURISDICAO":"FEDERAL","CONTRATO":"DESATIVADO","TIPO":"Praça física","ORGAO_FONTE":"ANTT","FONTE":"https://www.gov.br/antt/pt-br/assuntos/rodovias/concessionarias/lista-de-concessoes/via-040/localizacao-das-pracas-de-pedagio","OBS":"Antiga praça P1 da Via 040. Contrato Via 040 encerrado. O trecho atualmente está concedido à Via Cristais, porém sem praça de pedágio ativa em Cristalina.","LAT":-16.7389,"LONG":-47.61754,"PRECISAO":"OFICIAL"},"geometry":{"type":"Point","coordinates":[-47.61754,-16.7389]}}
]
}
