{
"type": "FeatureCollection",
"name": "pracas_pedagio_goias",
"crs": { "type": "name", "properties": { "name": "urn:ogc:def:crs:OGC:1.3:CRS84" } },
"features": [
{ "type": "Feature", "properties": { "CONCESSAO": "CONCEBRA", "PRACA_DE": "P1 - Alexânia", "RODOVIA": "BR-060", "UF": "GO", "KM_M": 43.1, "MUNICIPIO": "Alexânia", "TIPO_PI": "Principal", "SENTIDO": "Crescente/Decrescente", "LATITUDE": -16.1157, "LONGITUDE": -48.5892 }, "geometry": { "type": "Point", "coordinates": [ -48.5892, -16.1157 ] } },
{ "type": "Feature", "properties": { "CONCESSAO": "CONCEBRA", "PRACA_DE": "P2 - Goianápolis", "RODOVIA": "BR-060", "UF": "GO", "KM_M": 107.9, "MUNICIPIO": "Goianápolis", "TIPO_PI": "Principal", "SENTIDO": "Crescente/Decrescente", "LATITUDE": -16.4386, "LONGITUDE": -49.0191 }, "geometry": { "type": "Point", "coordinates": [ -49.0191, -16.4386 ] } },
{ "type": "Feature", "properties": { "CONCESSAO": "CONCEBRA", "PRACA_DE": "P3 - Professor Jamil", "RODOVIA": "BR-153", "UF": "GO", "KM_M": 553.1, "MUNICIPIO": "Piracanjuba", "TIPO_PI": "Principal", "SENTIDO": "Crescente/Decrescente", "LATITUDE": -17.1632, "LONGITUDE": -49.2126 }, "geometry": { "type": "Point", "coordinates": [ -49.2126, -17.1632 ] } },
{ "type": "Feature", "properties": { "CONCESSAO": "CONCEBRA", "PRACA_DE": "P4 - Itumbiara", "RODOVIA": "BR-153", "UF": "GO", "KM_M": 685.8, "MUNICIPIO": "Itumbiara", "TIPO_PI": "Principal", "SENTIDO": "Crescente/Decrescente", "LATITUDE": -18.2685, "LONGITUDE": -49.2458 }, "geometry": { "type": "Point", "coordinates": [ -49.2458, -18.2685 ] } },
{ "type": "Feature", "properties": { "CONCESSAO": "ECO050", "PRACA_DE": "P01 - Ipameri", "RODOVIA": "BR-050", "UF": "GO", "KM_M": 144.0, "MUNICIPIO": "Ipameri", "TIPO_PI": "Principal", "SENTIDO": "Crescente/Decrescente", "LATITUDE": -17.121178, "LONGITUDE": -47.721416 }, "geometry": { "type": "Point", "coordinates": [ -47.721416, -17.121178 ] } },
{ "type": "Feature", "properties": { "CONCESSAO": "ECO050", "PRACA_DE": "P02 - Campo Alegre", "RODOVIA": "BR-050", "UF": "GO", "KM_M": 226.0, "MUNICIPIO": "Campo Alegre de Goiás", "TIPO_PI": "Principal", "SENTIDO": "Crescente/Decrescente", "LATITUDE": -17.772, "LONGITUDE": -47.749953 }, "geometry": { "type": "Point", "coordinates": [ -47.749953, -17.772 ] } },
{ "type": "Feature", "properties": { "CONCESSAO": "ECOVIAS DO ARAGUAIA", "PRACA_DE": "P3 - Porangatu", "RODOVIA": "BR-153", "UF": "GO", "KM_M": 12.5, "MUNICIPIO": "Porangatu", "TIPO_PI": "Principal", "SENTIDO": "Crescente/Decrescente", "LATITUDE": -12.943414, "LONGITUDE": -49.133122 }, "geometry": { "type": "Point", "coordinates": [ -49.133122, -12.943414 ] } },
{ "type": "Feature", "properties": { "CONCESSAO": "ECOVIAS DO ARAGUAIA", "PRACA_DE": "P4 - Estrela do Norte", "RODOVIA": "BR-153", "UF": "GO", "KM_M": 116.12, "MUNICIPIO": "Estrela do Norte", "TIPO_PI": "Principal", "SENTIDO": "Crescente/Decrescente", "LATITUDE": -13.791358, "LONGITUDE": -49.034842 }, "geometry": { "type": "Point", "coordinates": [ -49.034842, -13.791358 ] } },
{ "type": "Feature", "properties": { "CONCESSAO": "ECOVIAS DO ARAGUAIA", "PRACA_DE": "P5 - Campinorte", "RODOVIA": "BR-153", "UF": "GO", "KM_M": 182.04, "MUNICIPIO": "Campinorte", "TIPO_PI": "Principal", "SENTIDO": "Crescente/Decrescente", "LATITUDE": -14.372969, "LONGITUDE": -49.158264 }, "geometry": { "type": "Point", "coordinates": [ -49.158264, -14.372969 ] } },
{ "type": "Feature", "properties": { "CONCESSAO": "ECOVIAS DO ARAGUAIA", "PRACA_DE": "P6 - Hidrolina", "RODOVIA": "BR-153", "UF": "GO", "KM_M": 233.4, "MUNICIPIO": "Hidrolina", "TIPO_PI": "Principal", "SENTIDO": "Crescente/Decrescente", "LATITUDE": -14.799372, "LONGITUDE": -49.284164 }, "geometry": { "type": "Point", "coordinates": [ -49.284164, -14.799372 ] } },
{ "type": "Feature", "properties": { "CONCESSAO": "ECOVIAS DO ARAGUAIA", "PRACA_DE": "P7 - Jaraguá", "RODOVIA": "BR-153", "UF": "GO", "KM_M": 367.5, "MUNICIPIO": "Jaraguá", "TIPO_PI": "Principal", "SENTIDO": "Crescente/Decrescente", "LATITUDE": -15.827072, "LONGITUDE": -49.281722 }, "geometry": { "type": "Point", "coordinates": [ -49.281722, -15.827072 ] } },
{ "type": "Feature", "properties": { "CONCESSAO": "ECOVIAS DO ARAGUAIA", "PRACA_DE": "P8 - Santa Rita do Novo Destino", "RODOVIA": "BR-080", "UF": "GO", "KM_M": 155.5, "MUNICIPIO": "Santa Rita do Novo Destino", "TIPO_PI": "Principal", "SENTIDO": "Crescente/Decrescente", "LATITUDE": -14.814189, "LONGITUDE": -49.042442 }, "geometry": { "type": "Point", "coordinates": [ -49.042442, -14.814189 ] } },
{ "type": "Feature", "properties": { "CONCESSAO": "ECOVIAS DO ARAGUAIA", "PRACA_DE": "P9 - Corumbá de Goiás", "RODOVIA": "BR-414", "UF": "GO", "KM_M": 404.08, "MUNICIPIO": "Corumbá de Goiás", "TIPO_PI": "Principal", "SENTIDO": "Crescente/Decrescente", "LATITUDE": -16.001028, "LONGITUDE": -48.840289 }, "geometry": { "type": "Point", "coordinates": [ -48.840289, -16.001028 ] } },
{ "type": "Feature", "properties": { "CONCESSAO": "ECOVIAS DO CERRADO", "PRACA_DE": "P5 - Paranaiguara", "RODOVIA": "BR-364", "UF": "GO", "KM_M": 32.6, "MUNICIPIO": "Paranaiguara", "TIPO_PI": "Principal", "SENTIDO": "Crescente/Decrescente", "LATITUDE": -18.882177, "LONGITUDE": -50.75675 }, "geometry": { "type": "Point", "coordinates": [ -50.75675, -18.882177 ] } },
{ "type": "Feature", "properties": { "CONCESSAO": "ECOVIAS DO CERRADO", "PRACA_DE": "P6 - Cachoeira Alta", "RODOVIA": "BR-364", "UF": "GO", "KM_M": 92.85, "MUNICIPIO": "Cachoeira Alta", "TIPO_PI": "Principal", "SENTIDO": "Crescente/Decrescente", "LATITUDE": -18.471225, "LONGITUDE": -51.082657 }, "geometry": { "type": "Point", "coordinates": [ -51.082657, -18.471225 ] } },
{ "type": "Feature", "properties": { "CONCESSAO": "ECOVIAS DO CERRADO", "PRACA_DE": "P7 - Jataí", "RODOVIA": "BR-364", "UF": "GO", "KM_M": 156.18, "MUNICIPIO": "Jataí", "TIPO_PI": "Principal", "SENTIDO": "Crescente/Decrescente", "LATITUDE": -18.111396, "LONGITUDE": -51.480543 }, "geometry": { "type": "Point", "coordinates": [ -51.480543, -18.111396 ] } }
]
}
